[
  {
    "ORDINAL": "1",
    "COMMENT": "GENERATED VIA SPACETRACK.ORG API",
    "ORIGINATOR": "18 SPCS",
    "NORAD_CAT_ID": "1103",
    "OBJECT_NAME": "COSMOS 57 DEB",
    "OBJECT_TYPE": "DEBRIS",
    "CLASSIFICATION_TYPE": "U",
    "INTLDES": "65012F",
    "EPOCH": "1965-02-25 03:21:59",
    "EPOCH_MICROSECONDS": "738400",
    "MEAN_MOTION": "16.29909777",
    "ECCENTRICITY": "0.003774",
    "INCLINATION": "64.6042",
    "RA_OF_ASC_NODE": "289.2571",
    "ARG_OF_PERICENTER": "32.8844",
    "MEAN_ANOMALY": "327.4137",
    "EPHEMERIS_TYPE": "0",
    "ELEMENT_SET_NO": "999",
    "REV_AT_EPOCH": "46",
    "BSTAR": "0",
    "MEAN_MOTION_DOT": "0.00450031",
    "MEAN_MOTION_DDOT": "0.00064613",
    "FILE": "33911",
    "TLE_LINE0": "0 COSMOS 57 DEB",
    "TLE_LINE1": "1 01103U 65012  F 65056.14027475  .00450031 +64613-3 +00000-0 0  9997",
    "TLE_LINE2": "2 01103 064.6042 289.2571 0037740 032.8844 327.4137 16.29909777000467",
    "OBJECT_ID": "1965-012F",
    "OBJECT_NUMBER": "1103",
    "SEMIMAJOR_AXIS": "6570.923",
    "PERIOD": "88.348",
    "APOGEE": "217.587",
    "PERIGEE": "167.990",
    "DECAYED": "1"
  },
  {
    "ORDINAL": "1",
    "COMMENT": "GENERATED VIA SPACETRACK.ORG API",
    "ORIGINATOR": "18 SPCS",
    "NORAD_CAT_ID": "1104",
    "OBJECT_NAME": "COSMOS 57 DEB",
    "OBJECT_TYPE": "DEBRIS",
    "CLASSIFICATION_TYPE": "U",
    "INTLDES": "65012G",
    "EPOCH": "1965-03-03 21:36:03",
    "EPOCH_MICROSECONDS": "817152",
    "MEAN_MOTION": "15.89071032",
    "ECCENTRICITY": "0.0224472",
    "INCLINATION": "64.7321",
    "RA_OF_ASC_NODE": "265.8824",
    "ARG_OF_PERICENTER": "57.6703",
    "MEAN_ANOMALY": "304.4836",
    "EPHEMERIS_TYPE": "0",
    "ELEMENT_SET_NO": "999",
    "REV_AT_EPOCH": "152",
    "BSTAR": "0",
    "MEAN_MOTION_DOT": "0.01036636",
    "MEAN_MOTION_DDOT": "0.0022072",
    "FILE": "33911",
    "TLE_LINE0": "0 COSMOS 57 DEB",
    "TLE_LINE1": "1 01104U 65012  G 65062.90004418  .01036636 +22072-2 +00000-0 0  9995",
    "TLE_LINE2": "2 01104 064.7321 265.8824 0224472 057.6703 304.4836 15.89071032001527",
    "OBJECT_ID": "1965-012G",
    "OBJECT_NUMBER": "1104",
    "SEMIMAJOR_AXIS": "6683.027",
    "PERIOD": "90.619",
    "APOGEE": "454.908",
    "PERIGEE": "154.877",
    "DECAYED": "1"
  },
  {
    "ORDINAL": "1",
    "COMMENT": "GENERATED VIA SPACETRACK.ORG API",
    "ORIGINATOR": "18 SPCS",
    "NORAD_CAT_ID": "1105",
    "OBJECT_NAME": "COSMOS 57 DEB",
    "OBJECT_TYPE": "DEBRIS",
    "CLASSIFICATION_TYPE": "U",
    "INTLDES": "65012H",
    "EPOCH": "1965-02-25 17:14:59",
    "EPOCH_MICROSECONDS": "339039",
    "MEAN_MOTION": "16.43135671",
    "ECCENTRICITY": "0.005064",
    "INCLINATION": "64.8907",
    "RA_OF_ASC_NODE": "287.3572",
    "ARG_OF_PERICENTER": "313.0549",
    "MEAN_ANOMALY": "46.5803",
    "EPHEMERIS_TYPE": "0",
    "ELEMENT_SET_NO": "999",
    "REV_AT_EPOCH": "56",
    "BSTAR": "0",
    "MEAN_MOTION_DOT": "0.00082147",
    "MEAN_MOTION_DDOT": "0.000021355",
    "FILE": "33911",
    "TLE_LINE0": "0 COSMOS 57 DEB",
    "TLE_LINE1": "1 01105U 65012  H 65056.71874235  .00082147 +21355-4 +00000-0 0  9992",
    "TLE_LINE2": "2 01105 064.8907 287.3572 0050640 313.0549 046.5803 16.43135671000561",
    "OBJECT_ID": "1965-012H",
    "OBJECT_NUMBER": "1105",
    "SEMIMAJOR_AXIS": "6535.616",
    "PERIOD": "87.637",
    "APOGEE": "190.577",
    "PERIGEE": "124.384",
    "DECAYED": "1"
  },
  {
    "ORDINAL": "1",
    "COMMENT": "GENERATED VIA SPACETRACK.ORG API",
    "ORIGINATOR": "18 SPCS",
    "NORAD_CAT_ID": "1106",
    "OBJECT_NAME": "COSMOS 57 DEB",
    "OBJECT_TYPE": "DEBRIS",
    "CLASSIFICATION_TYPE": "U",
    "INTLDES": "65012J",
    "EPOCH": "1965-02-25 03:58:45",
    "EPOCH_MICROSECONDS": "3359",
    "MEAN_MOTION": "16.27835916",
    "ECCENTRICITY": "0.0043525",
    "INCLINATION": "64.7373",
    "RA_OF_ASC_NODE": "289.2383",
    "ARG_OF_PERICENTER": "25.6563",
    "MEAN_ANOMALY": "334.6349",
    "EPHEMERIS_TYPE": "0",
    "ELEMENT_SET_NO": "999",
    "REV_AT_EPOCH": "46",
    "BSTAR": "0",
    "MEAN_MOTION_DOT": "0.00485716",
    "MEAN_MOTION_DDOT": "0.00075362",
    "FILE": "33911",
    "TLE_LINE0": "0 COSMOS 57 DEB",
    "TLE_LINE1": "1 01106U 65012  J 65056.16579865  .00485716 +75362-3 +00000-0 0  9998",
    "TLE_LINE2": "2 01106 064.7373 289.2383 0043525 025.6563 334.6349 16.27835916000461",
    "OBJECT_ID": "1965-012J",
    "OBJECT_NUMBER": "1106",
    "SEMIMAJOR_AXIS": "6576.503",
    "PERIOD": "88.461",
    "APOGEE": "226.992",
    "PERIGEE": "169.744",
    "DECAYED": "1"
  },
  {
    "ORDINAL": "1",
    "COMMENT": "GENERATED VIA SPACETRACK.ORG API",
    "ORIGINATOR": "18 SPCS",
    "NORAD_CAT_ID": "1107",
    "OBJECT_NAME": "COSMOS 57 DEB",
    "OBJECT_TYPE": "DEBRIS",
    "CLASSIFICATION_TYPE": "U",
    "INTLDES": "65012K",
    "EPOCH": "1965-02-25 03:21:35",
    "EPOCH_MICROSECONDS": "781407",
    "MEAN_MOTION": "16.38768401",
    "ECCENTRICITY": "0.007665",
    "INCLINATION": "64.7472",
    "RA_OF_ASC_NODE": "289.1279",
    "ARG_OF_PERICENTER": "47.3313",
    "MEAN_ANOMALY": "313.3573",
    "EPHEMERIS_TYPE": "0",
    "ELEMENT_SET_NO": "999",
    "REV_AT_EPOCH": "46",
    "BSTAR": "0",
    "MEAN_MOTION_DOT": "0.00587072",
    "MEAN_MOTION_DDOT": "0.0010935",
    "FILE": "33911",
    "TLE_LINE0": "0 COSMOS 57 DEB",
    "TLE_LINE1": "1 01107U 65012  K 65056.13999747  .00587072 +10935-2 +00000-0 0  9993",
    "TLE_LINE2": "2 01107 064.7472 289.1279 0076650 047.3313 313.3573 16.38768401000463",
    "OBJECT_ID": "1965-012K",
    "OBJECT_NUMBER": "1107",
    "SEMIMAJOR_AXIS": "6547.222",
    "PERIOD": "87.871",
    "APOGEE": "219.271",
    "PERIGEE": "118.903",
    "DECAYED": "1"
  },
  {
    "ORDINAL": "1",
    "COMMENT": "GENERATED VIA SPACETRACK.ORG API",
    "ORIGINATOR": "18 SPCS",
    "NORAD_CAT_ID": "1108",
    "OBJECT_NAME": "COSMOS 57 DEB",
    "OBJECT_TYPE": "DEBRIS",
    "CLASSIFICATION_TYPE": "U",
    "INTLDES": "65012L",
    "EPOCH": "1965-02-25 03:54:03",
    "EPOCH_MICROSECONDS": "181247",
    "MEAN_MOTION": "16.18898871",
    "ECCENTRICITY": "0.0068884",
    "INCLINATION": "64.7042",
    "RA_OF_ASC_NODE": "289.9591",
    "ARG_OF_PERICENTER": "87.5945",
    "MEAN_ANOMALY": "273.1939",
    "EPHEMERIS_TYPE": "0",
    "ELEMENT_SET_NO": "999",
    "REV_AT_EPOCH": "46",
    "BSTAR": "0",
    "MEAN_MOTION_DOT": "0.0020907",
    "MEAN_MOTION_DDOT": "0.0001364",
    "FILE": "33911",
    "TLE_LINE0": "0 COSMOS 57 DEB",
    "TLE_LINE1": "1 01108U 65012  L 65056.16253682  .00209070 +13640-3 +00000-0 0  9994",
    "TLE_LINE2": "2 01108 064.7042 289.9591 0068884 087.5945 273.1939 16.18898871000461",
    "OBJECT_ID": "1965-012L",
    "OBJECT_NUMBER": "1108",
    "SEMIMAJOR_AXIS": "6600.684",
    "PERIOD": "88.949",
    "APOGEE": "268.018",
    "PERIGEE": "177.081",
    "DECAYED": "1"
  },
  {
    "ORDINAL": "1",
    "COMMENT": "GENERATED VIA SPACETRACK.ORG API",
    "ORIGINATOR": "18 SPCS",
    "NORAD_CAT_ID": "1109",
    "OBJECT_NAME": "COSMOS 57 DEB",
    "OBJECT_TYPE": "DEBRIS",
    "CLASSIFICATION_TYPE": "U",
    "INTLDES": "65012M",
    "EPOCH": "1965-02-25 03:18:53",
    "EPOCH_MICROSECONDS": "170559",
    "MEAN_MOTION": "16.458017",
    "ECCENTRICITY": "0.0011889",
    "INCLINATION": "64.7466",
    "RA_OF_ASC_NODE": "289.6429",
    "ARG_OF_PERICENTER": "212.0655",
    "MEAN_ANOMALY": "147.9744",
    "EPHEMERIS_TYPE": "0",
    "ELEMENT_SET_NO": "999",
    "REV_AT_EPOCH": "46",
    "BSTAR": "0",
    "MEAN_MOTION_DOT": "0.000621",
    "MEAN_MOTION_DDOT": "0.000012184",
    "FILE": "33911",
    "TLE_LINE0": "0 COSMOS 57 DEB",
    "TLE_LINE1": "1 01109U 65012  M 65056.13811540  .00062100 +12184-4 +00000-0 0  9999",
    "TLE_LINE2": "2 01109 064.7466 289.6429 0011889 212.0655 147.9744 16.45801700000462",
    "OBJECT_ID": "1965-012M",
    "OBJECT_NUMBER": "1109",
    "SEMIMAJOR_AXIS": "6528.556",
    "PERIOD": "87.495",
    "APOGEE": "158.183",
    "PERIGEE": "142.659",
    "DECAYED": "1"
  },
  {
    "ORDINAL": "1",
    "COMMENT": "GENERATED VIA SPACETRACK.ORG API",
    "ORIGINATOR": "18 SPCS",
    "NORAD_CAT_ID": "1110",
    "OBJECT_NAME": "COSMOS 57 DEB",
    "OBJECT_TYPE": "DEBRIS",
    "CLASSIFICATION_TYPE": "U",
    "INTLDES": "65012N",
    "EPOCH": "1965-02-26 15:29:42",
    "EPOCH_MICROSECONDS": "441503",
    "MEAN_MOTION": "16.36044235",
    "ECCENTRICITY": "0.0053602",
    "INCLINATION": "64.6989",
    "RA_OF_ASC_NODE": "283.7477",
    "ARG_OF_PERICENTER": "31.8036",
    "MEAN_ANOMALY": "328.5191",
    "EPHEMERIS_TYPE": "0",
    "ELEMENT_SET_NO": "999",
    "REV_AT_EPOCH": "70",
    "BSTAR": "0",
    "MEAN_MOTION_DOT": "0.0064562",
    "MEAN_MOTION_DDOT": "0.0013249",
    "FILE": "33911",
    "TLE_LINE0": "0 COSMOS 57 DEB",
    "TLE_LINE1": "1 01110U 65012  N 65057.64563011  .00645620 +13249-2 +00000-0 0  9990",
    "TLE_LINE2": "2 01110 064.6989 283.7477 0053602 031.8036 328.5191 16.36044235000702",
    "OBJECT_ID": "1965-012N",
    "OBJECT_NUMBER": "1110",
    "SEMIMAJOR_AXIS": "6554.488",
    "PERIOD": "88.017",
    "APOGEE": "211.486",
    "PERIGEE": "141.219",
    "DECAYED": "1"
  }
]
